STARLINK-37948          
1 69670U 26143X   26192.69233400  .00015134  00000+0  27930-3 0  9998
2 69670  97.2861 236.6277 0000470  97.5632 262.5672 15.49199709  4276
STARLINK-37949          
1 69671U 26143Y   26192.75002315 -.00037639  00000+0 -69266-3 0  9999
2 69671  97.2856 236.7442 0000663  64.1864  33.3625 15.49233002  4319
STARLINK-37946          
1 69672U 26143Z   26192.75002315 -.00036013  00000+0 -66297-3 0  9996
2 69672  97.2856 236.7783 0001473  71.5757 103.6866 15.49212994  4316
TJS-26A                 
1 69674U 26144A   26191.73075990 -.00000335  00000+0  00000+0 0  9998
2 69674   6.9565 323.2282 0003512 343.7961 352.1905  1.00265482   172
CZ-7A R/B               
1 69675U 26144B   26192.19378919  .00440868 -53255-6  53892-3 0  9994
2 69675  19.4569 316.9057 7132891 193.2824 126.9869  2.54485030   462
2026-132G               
1 69676U 26132G   26189.43473603  .00006559  00000+0  42983-3 0  9997
2 69676  97.6875 253.0023 0024591 224.5551 135.3700 15.07805957  3973
STARLINK-38005          
1 69677U 26145A   26192.55563930  .00151302  00000+0  99732-3 0  9993
2 69677  97.2840  39.2128 0001800 359.3603   0.7659 15.75191285  2609
STARLINK-38009          
1 69678U 26145B   26192.55387467  .00160201  00000+0  10544-2 0  9994
2 69678  97.2840  39.2142 0001096  22.5415 337.5898 15.75201549  2604
STARLINK-37998          
1 69679U 26145C   26192.75002315 -.00165819  00000+0 -11294-2 0  9998
2 69679  97.2847  39.4263 0001224  74.7494 330.9178 15.75253515  3875
STARLINK-37994          
1 69680U 26145D   26192.75002315 -.00232129  00000+0 -15907-2 0  9994
2 69680  97.2847  39.4231 0001264  88.9437 308.7241 15.75296509  3874
STARLINK-37992          
1 69681U 26145E   26192.75002315 -.00290203  00000+0 -20007-2 0  9999
2 69681  97.2846  39.4240 0001218  76.1152 323.5532 15.75313852  3875
STARLINK-37997          
1 69682U 26145F   26192.75002315 -.00307839  00000+0 -21259-2 0  9994
2 69682  97.2850  39.4264 0001143  98.6263 305.0455 15.75323503  3879
STARLINK-37990          
1 69683U 26145G   26192.48787393  .00151633  00000+0  90587-3 0  9999
2 69683  97.2847  39.1506 0007716 233.5734 126.4821 15.77407529  2590
STARLINK-37951          
1 69684U 26145H   26192.55105141  .00057861  00000+0  38570-3 0  9995
2 69684  97.2833  39.2195 0001560  13.0467 347.0839 15.75217920  2600
STARLINK-37957          
1 69685U 26145J   26192.54999302  .00122475  00000+0  81060-3 0  9991
2 69685  97.2836  39.2189 0001212  71.6036 288.5361 15.75180904  2603
STARLINK-37968          
1 69686U 26145K   26192.54399455  .00132191  00000+0  87364-3 0  9994
2 69686  97.2842  39.2276 0001209  98.8897 261.2505 15.75186016  2608
STARLINK-37977          
1 69687U 26145L   26192.54328769  .00096183  00000+0  63802-3 0  9996
2 69687  97.2847  39.2302 0001120  67.9821 292.1563 15.75206895  2605
STARLINK-37908          
1 69688U 26145M   26192.54117042  .00119366  00000+0  79031-3 0  9997
2 69688  97.2846  39.2336 0001100  17.0073 343.1229 15.75181591  2606
STARLINK-37979          
1 69689U 26145N   26192.54081906  .00111815  00000+0  74110-3 0  9991
2 69689  97.2845  39.2328 0001146  35.8959 324.2383 15.75179085  2604
STARLINK-37940          
1 69690U 26145P   26192.53975957  .00121732  00000+0  80581-3 0  9998
2 69690  97.2851  39.2341 0001490   7.0887 353.0399 15.75179003  2608
STARLINK-37961          
1 69691U 26145Q   26192.53658468  .00133160  00000+0  87984-3 0  9996
2 69691  97.2844  39.2381 0001236   9.1250 351.0038 15.75188485  2602
STARLINK-37787          
1 69692U 26145R   26192.53446546  .00126488  00000+0  83474-3 0  9994
2 69692  97.2846  39.2425 0001422 113.0596 247.0819 15.75235835  2602
STARLINK-37962          
1 69693U 26145S   26192.53270032  .00145291  00000+0  95614-3 0  9992
2 69693  97.2846  39.2439 0001558 115.2253 244.9174 15.75246550  2608
STARLINK-37953          
1 69694U 26145T   26192.53552578  .00122175  00000+0  80913-3 0  9993
2 69694  97.2847  39.2392 0001356  29.8767 330.2576 15.75166819  2608
STARLINK-37926          
1 69695U 26145U   26192.53481274  .00104845  00000+0  69359-3 0  9993
2 69695  97.2826  39.2387 0007594 144.6559 215.5211 15.75207577  2603
STARLINK-37959          
1 69696U 26145V   26192.53376135  .00125304  00000+0  82798-3 0  9998
2 69696  97.2834  39.2438 0001472  27.9813 332.1531 15.75209865  2608
STARLINK-37976          
1 69697U 26145W   26192.53093648  .00146464  00000+0  96358-3 0  9991
2 69697  97.2840  39.2463 0001615 104.6807 255.4637 15.75249691  2604
STARLINK-37912          
1 69698U 26145X   26192.52987844  .00129005  00000+0  85111-3 0  9998
2 69698  97.2844  39.2488 0001474  99.2640 260.8792 15.75235072  2603
STARLINK-37974          
1 69699U 26145Y   26192.52917267  .00120139  00000+0  79363-3 0  9992
2 69699  97.2838  39.2496 0001923 106.8532 253.2945 15.75230632  2603
STARLINK-37955          
1 69700U 26145Z   26192.71725913  .00092111  00000+0  60964-3 0  9996
2 69700  97.2846  39.4529 0001061  69.8532 290.2847 15.75271299  2634
